NORAD_CAT_ID,OBJECT_NAME,OBJECT_TYPE,EPOCH,MEAN_MOTION,ECCENTRICITY,INCLINATION,RA_OF_ASC_NODE,ARG_OF_PERICENTER,MEAN_ANOMALY,BSTAR,MEAN_MOTION_DOT,MEAN_MOTION_DDOT,TLE_LINE0,TLE_LINE1,TLE_LINE2,SEMIMAJOR_AXIS,PERIOD,APOGEE,PERIGEE,DECAYED
52684.0,STARLINK-4014,PAYLOAD,2022-08-20 22:00:00,15.08810449,0.0002045999999999,53.2142,205.5562,54.6922,20.357,0.0015686,0.00024744,0.0,0 STARLINK-4014,1 52684U 22053AE  22232.91667824  .00024744  00000-0  15686-2 0  9990,2 52684  53.2142 205.5562 0002046  54.6922  20.3570 15.08810449  1300,6917.971,95.439,541.251,538.42,0.0
52684.0,STARLINK-4014,PAYLOAD,2022-08-21 06:00:00,15.08814427,0.0002227,53.214,204.0616,50.4084,36.21,4.8635e-05,4.85e-06,0.0,0 STARLINK-4014,1 52684U 22053AE  22233.25001157  .00000485  00000-0  48635-4 0  9997,2 52684  53.2140 204.0616 0002227  50.4084  36.2100 15.08814427 15036,6917.959,95.439,541.364,538.283,0.0
52684.0,STARLINK-4014,PAYLOAD,2022-08-21 14:00:01,15.08836824,0.0002164,53.2137,202.5643,51.2415,46.9408,-0.0018859,-0.00030175,0.0,0 STARLINK-4014,1 52684U 22053AE  22233.58334491 -.00030175  00000-0 -18859-2 0  9997,2 52684  53.2137 202.5643 0002164  51.2415  46.9408 15.08836824  1301,6917.89,95.438,541.252,538.258,0.0
52684.0,STARLINK-4014,PAYLOAD,2022-08-21 22:00:00,15.08824837,0.0002130999999999,53.2138,201.067,56.4295,53.3301,0.0010883,0.00017068,0.0,0 STARLINK-4014,1 52684U 22053AE  22233.91667824  .00017068  00000-0  10883-2 0  9996,2 52684  53.2138 201.0670 0002131  56.4295  53.3301 15.08824837  1308,6917.927,95.439,541.266,538.318,0.0
52684.0,STARLINK-4014,PAYLOAD,2022-08-22 12:00:00,15.08845871,0.0002276999999999,53.2135,198.4496,50.5166,349.5073,-0.0014425,-0.00023177,0.0,0 STARLINK-4014,1 52684U 22053AE  22234.50001157 -.00023177  00000-0 -14425-2 0  9999,2 52684  53.2135 198.4496 0002277  50.5166 349.5073 15.08845871  1300,6917.861999999999,95.437,541.303,538.1519999999998,0.0
52684.0,STARLINK-4014,PAYLOAD,2022-08-22 22:00:00,15.08839889,0.0002237,53.2139,196.5778,57.4002,87.1106,0.00066611,0.00010329,0.0,0 STARLINK-4014,1 52684U 22053AE  22234.91667824  .00010329  00000-0  66611-3 0  9991,2 52684  53.2139 196.5778 0002237  57.4002  87.1106 15.08839889  1301,6917.880999999999,95.438,541.293,538.198,0.0
52684.0,STARLINK-4014,PAYLOAD,2022-08-23 04:00:00,15.08845858,0.0002387999999999,53.2137,195.457,53.4591,9.7497,-0.00099438,-0.00016082,0.0,0 STARLINK-4014,1 52684U 22053AE  22235.16667824 -.00016082  00000-0 -99438-3 0  9996,2 52684  53.2137 195.4570 0002388  53.4591   9.7497 15.08845858 15315,6917.861999999999,95.437,541.379,538.075,0.0
52684.0,STARLINK-4014,PAYLOAD,2022-08-23 14:00:01,15.08857411,0.0002326,53.214,193.5855,54.0973,113.6039,-0.001638,-0.00026276,0.0,0 STARLINK-4014,1 52684U 22053AE  22235.58334491 -.00026276  00000-0 -16380-2 0  9993,2 52684  53.2140 193.5855 0002326  54.0973 113.6039 15.08857411  1306,6917.8269999999975,95.436,541.3009999999998,538.0830000000002,0.0
52684.0,STARLINK-4014,PAYLOAD,2022-08-23 20:00:01,15.08833214,0.0002315,53.2141,192.4622,57.8335,28.5742,0.0022565,0.00035801,0.0,0 STARLINK-4014,1 52684U 22053AE  22235.83334491  .00035801  00000-0  22565-2 0  9995,2 52684  53.2141 192.4622 0002315  57.8335  28.5742 15.08833214 15426,6917.901,95.438,541.368,538.165,0.0
52684.0,STARLINK-4014,PAYLOAD,2022-08-23 22:00:01,15.08853451,0.0002349,53.2144,192.0885,58.3008,121.0632,0.00023425,3.443e-05,0.0,0 STARLINK-4014,1 52684U 22053AE  22235.91668981  .00003443  00000-0  23425-3 0  9992,2 52684  53.2144 192.0885 0002349  58.3008 121.0632 15.08853451  1300,6917.839,95.437,541.3290000000002,538.0790000000002,0.0
52684.0,STARLINK-4014,PAYLOAD,2022-08-24 14:00:01,15.08872158,0.0002355,53.2147,189.096,54.879,147.6428,-0.004183,-0.0006631,0.0,0 STARLINK-4014,1 52684U 22053AE  22236.58334491 -.00066310  00000-0 -41830-2 0  9995,2 52684  53.2147 189.0960 0002355  54.8790 147.6428 15.08872158 15531,6917.781999999997,95.436,541.276,538.018,0.0
52684.0,STARLINK-4014,PAYLOAD,2022-08-24 22:00:00,15.0884072,0.0002355999999999,53.2156,187.598,58.2587,155.8778,-0.00034704,-5.808e-05,0.0,0 STARLINK-4014,1 52684U 22053AE  22236.91667824 -.00005808  00000-0 -34704-3 0  9999,2 52684  53.2156 187.5980 0002356  58.2587 155.8778 15.08840720 15583,6917.878000000002,95.438,541.373,538.113,0.0
52684.0,STARLINK-4014,PAYLOAD,2022-08-25 14:00:01,15.08845465,0.0002368,53.2154,184.6066,55.9942,181.321,-0.0010574,-0.00017081,0.0,0 STARLINK-4014,1 52684U 22053AE  22237.58334491 -.00017081  00000-0 -10574-2 0  9998,2 52684  53.2154 184.6066 0002368  55.9942 181.3210 15.08845465  1307,6917.864000000001,95.437,541.367,538.091,0.0
52684.0,STARLINK-4014,PAYLOAD,2022-08-25 22:00:00,15.08853072,0.0002379,53.2157,183.1102,59.6086,189.2967,-0.00034325,-5.749e-05,0.0,0 STARLINK-4014,1 52684U 22053AE  22237.91667824 -.00005749  00000-0 -34325-3 0  9993,2 52684  53.2157 183.1102 0002379  59.6086 189.2967 15.08853072  1306,6917.84,95.437,541.351,538.06,0.0
52684.0,STARLINK-4014,PAYLOAD,2022-08-26 06:00:00,15.08826212,0.0002546,53.2158,181.6154,54.8079,205.7084,0.0023561999999999,0.00037397,0.0,0 STARLINK-4014,1 52684U 22053AE  22238.25001157  .00037397  00000-0  23562-2 0  9994,2 52684  53.2158 181.6154 0002546  54.8079 205.7084 15.08826212 15789,6917.9230000000025,95.438,541.549,538.026,0.0
52684.0,STARLINK-4014,PAYLOAD,2022-08-26 14:00:01,15.08856608,0.0002365,53.2159,180.1174,58.1705,214.006,-0.0012104,-0.0001950999999999,0.0,0 STARLINK-4014,1 52684U 22053AE  22238.58335648 -.00019510  00000-0 -12104-2 0  9994,2 52684  53.2159 180.1174 0002365  58.1705 214.0060 15.08856608  1300,6917.83,95.437,541.331,538.059,0.0
52684.0,STARLINK-4014,PAYLOAD,2022-08-26 20:00:01,15.08846632,0.0002316,53.2161,178.9949,61.3967,129.4226,-0.00086941,-0.00014101,0.0,0 STARLINK-4014,1 52684U 22053AE  22238.83334491 -.00014101  00000-0 -86941-3 0  9999,2 52684  53.2161 178.9949 0002316  61.3967 129.4226 15.08846632 15876,6917.86,95.437,541.327,538.123,0.0
52684.0,STARLINK-4014,PAYLOAD,2022-08-26 22:00:00,15.08849394,0.0002316999999999,53.2161,178.6212,60.4572,223.261,-0.0015914,-0.00025534,0.0,0 STARLINK-4014,1 52684U 22053AE  22238.91667824 -.00025534  00000-0 -15914-2 0  9990,2 52684  53.2161 178.6212 0002317  60.4572 223.2610 15.08849394  1300,6917.852,95.437,541.32,538.114,0.0
52684.0,STARLINK-4014,PAYLOAD,2022-08-27 14:00:01,15.0883141,0.0002301,53.2159,175.6285,59.659,247.2371,9.5518e-05,1.232e-05,0.0,0 STARLINK-4014,1 52684U 22053AE  22239.58334491  .00001232  00000-0  95518-4 0  9992,2 52684  53.2159 175.6285 0002301  59.6590 247.2371 15.08831410  1307,6917.906999999997,95.438,541.363,538.18,0.0
52684.0,STARLINK-4014,PAYLOAD,2022-08-27 20:00:01,15.08839326,0.0002307,53.216,174.5061,63.3279,162.2551,0.0008404999999999,0.00013114,0.0,0 STARLINK-4014,1 52684U 22053AE  22239.83334491  .00013114  00000-0  84050-3 0  9990,2 52684  53.2160 174.5061 0002307  63.3279 162.2551 15.08839326 16026,6917.882,95.438,541.3430000000002,538.151,0.0
52684.0,STARLINK-4014,PAYLOAD,2022-08-27 22:00:00,15.08854604,0.0002319,53.216,174.1324,62.1792,256.2988,-0.0010750999999999,-0.00017365,0.0,0 STARLINK-4014,1 52684U 22053AE  22239.91667824 -.00017365  00000-0 -10751-2 0  9998,2 52684  53.2160 174.1324 0002319  62.1792 256.2988 15.08854604  1303,6917.8359999999975,95.437,541.305,538.097,0.0
52684.0,STARLINK-4014,PAYLOAD,2022-08-28 14:00:01,15.08857042,0.0002278999999999,53.2156,171.1395,61.9622,279.7328,-0.0016079,-0.000258,0.0,0 STARLINK-4014,1 52684U 22053AE  22240.58334491 -.00025800  00000-0 -16079-2 0  9996,2 52684  53.2156 171.1395 0002279  61.9622 279.7328 15.08857042  1304,6917.828,95.436,541.27,538.117,0.0
52684.0,STARLINK-4014,PAYLOAD,2022-08-28 20:00:01,15.08842126,0.0002275,53.2156,170.0172,64.5037,195.8964,-0.00018541,-3.238e-05,0.0,0 STARLINK-4014,1 52684U 22053AE  22240.83334491 -.00003238  00000-0 -18541-3 0  9992,2 52684  53.2156 170.0172 0002275  64.5037 195.8964 15.08842126 16172,6917.874,95.437,541.313,538.165,0.0
52684.0,STARLINK-4014,PAYLOAD,2022-08-28 22:00:00,15.08848618,0.0002278,53.2156,169.6436,62.8862,290.4113,-0.0012845,-0.00020679,0.0,0 STARLINK-4014,1 52684U 22053AE  22240.91667824 -.00020679  00000-0 -12845-2 0  9998,2 52684  53.2156 169.6436 0002278  62.8862 290.4113 15.08848618  1308,6917.854,95.437,541.295,538.143,0.0
52684.0,STARLINK-4014,PAYLOAD,2022-08-29 14:00:01,15.08802012,0.0002176,53.2152,166.6505,61.56800000000001,314.9181,0.0014798,0.00023317,0.0,0 STARLINK-4014,1 52684U 22053AE  22241.58334491  .00023317  00000-0  14798-2 0  9992,2 52684  53.2152 166.6505 0002176  61.5680 314.9181 15.08802012  1304,6917.996999999999,95.44,541.367,538.356,0.0
52684.0,STARLINK-4014,PAYLOAD,2022-08-29 22:00:00,15.088385199999998,0.000226,53.2152,165.1547,62.358,325.6824,-0.0014011,-0.00022518,0.0,0 STARLINK-4014,1 52684U 22053AE  22241.91667824 -.00022518  00000-0 -14011-2 0  9990,2 52684  53.2152 165.1547 0002260  62.3580 325.6824 15.08838520 16331,6917.885,95.438,541.313,538.186,0.0
52684.0,STARLINK-4014,PAYLOAD,2022-08-30 14:00:01,15.08817581,0.0002246,53.2151,162.1613,62.7494,348.4569,0.0020648,0.00032707,0.0,0 STARLINK-4014,1 52684U 22053AE  22242.58334491  .00032707  00000-0  20648-2 0  9997,2 52684  53.2151 162.1613 0002246  62.7494 348.4569 15.08817581 16437,6917.949000000001,95.439,541.368,538.26,0.0
52684.0,STARLINK-4014,PAYLOAD,2022-08-30 22:00:00,15.08857211,0.0002365,53.215,160.6656,62.8425,359.9398,-0.0016065,-0.00025778,0.0,0 STARLINK-4014,1 52684U 22053AE  22242.91667824 -.00025778  00000-0 -16065-2 0  9993,2 52684  53.2150 160.6656 0002365  62.8425 359.9398 15.08857211  1304,6917.828,95.436,541.3290000000002,538.057,0.0
52684.0,STARLINK-4014,PAYLOAD,2022-08-31 12:00:00,15.08846523,0.0002302,53.2151,158.0465,61.4419,291.6505,-0.0021673,-0.00034623,0.0,0 STARLINK-4014,1 52684U 22053AE  22243.50001157 -.00034623  00000-0 -21673-2 0  9990,2 52684  53.2151 158.0465 0002302  61.4419 291.6505 15.08846523 16574,6917.86,95.437,541.318,538.133,0.0
